{
  "type": "FeatureCollection",
  "features": [
    {
      "type": "Feature",
      "properties": {
        "norad_id": 40115,
        "name": "WORLDVIEW-3 (WV-3)",
        "group": "resource",
        "lat": -60.3620585636519,
        "lon": -140.5438949517666,
        "alt_km": 616.7966867264631,
        "timestamp": "2025-12-07T03:52:32.127126+00:00",
        "meta_object_name": "WORLDVIEW-3 (WV-3)",
        "meta_object_id": "2014-048A",
        "meta_epoch": "2025-12-06T15:28:35.020992",
        "meta_mean_motion": 14.85488801,
        "meta_eccentricity": 0.00043199,
        "meta_inclination": 97.8622,
        "meta_ra_of_asc_node": 53.002,
        "meta_arg_of_pericenter": 205.7909,
        "meta_mean_anomaly": 154.3091,
        "meta_ephemeris_type": 0,
        "meta_classification_type": "U",
        "meta_norad_cat_id": 40115,
        "meta_element_set_no": 999,
        "meta_rev_at_epoch": 61333,
        "meta_bstar": 0.00027738589,
        "meta_mean_motion_dot": 2.341e-05,
        "meta_mean_motion_ddot": 0,
        "tle_line1": "1 40115U 14048A   25340.64484978  .00002341  00000+0  27739-3 0  9992",
        "tle_line2": "2 40115  97.8622  53.0020 0004319 205.7909 154.3091 14.85488801613332"
      },
      "geometry": {
        "type": "Point",
        "coordinates": [
          -140.5438949517666,
          -60.3620585636519
        ]
      }
    },
    {
      "type": "Feature",
      "properties": {
        "norad_id": 40118,
        "name": "GAOFEN-2",
        "group": "resource",
        "lat": 22.796088727923706,
        "lon": -136.27447373726895,
        "alt_km": 621.9155386505072,
        "timestamp": "2025-12-07T03:52:32.127136+00:00",
        "meta_object_name": "GAOFEN-2",
        "meta_object_id": "2014-049A",
        "meta_epoch": "2025-12-06T14:11:39.487200",
        "meta_mean_motion": 14.80591858,
        "meta_eccentricity": 0.0008379,
        "meta_inclination": 98.0394,
        "meta_ra_of_asc_node": 39.749,
        "meta_arg_of_pericenter": 130.6724,
        "meta_mean_anomaly": 229.5218,
        "meta_ephemeris_type": 0,
        "meta_classification_type": "U",
        "meta_norad_cat_id": 40118,
        "meta_element_set_no": 999,
        "meta_rev_at_epoch": 61073,
        "meta_bstar": 0.00020695982,
        "meta_mean_motion_dot": 1.535e-05,
        "meta_mean_motion_ddot": 0,
        "tle_line1": "1 40118U 14049A   25340.59142925  .00001535  00000+0  20696-3 0  9992",
        "tle_line2": "2 40118  98.0394  39.7490 0008379 130.6724 229.5218 14.80591858610736"
      },
      "geometry": {
        "type": "Point",
        "coordinates": [
          -136.27447373726895,
          22.796088727923706
        ]
      }
    },
    {
      "type": "Feature",
      "properties": {
        "norad_id": 40143,
        "name": "YAOGAN-21",
        "group": "resource",
        "lat": -22.14083657257345,
        "lon": 27.65556085414105,
        "alt_km": 499.4106780115244,
        "timestamp": "2025-12-07T03:52:32.127147+00:00",
        "meta_object_name": "YAOGAN-21",
        "meta_object_id": "2014-053A",
        "meta_epoch": "2025-12-06T15:21:47.618208",
        "meta_mean_motion": 15.23568383,
        "meta_eccentricity": 0.00101168,
        "meta_inclination": 97.1759,
        "meta_ra_of_asc_node": 24.2184,
        "meta_arg_of_pericenter": 60.5005,
        "meta_mean_anomaly": 299.7241,
        "meta_ephemeris_type": 0,
        "meta_classification_type": "U",
        "meta_norad_cat_id": 40143,
        "meta_element_set_no": 999,
        "meta_rev_at_epoch": 62561,
        "meta_bstar": 0.00043856932,
        "meta_mean_motion_dot": 0.0001044,
        "meta_mean_motion_ddot": 0,
        "tle_line1": "1 40143U 14053A   25340.64013447  .00010440  00000+0  43857-3 0  9996",
        "tle_line2": "2 40143  97.1759  24.2184 0010116  60.5005 299.7241 15.23568383625616"
      },
      "geometry": {
        "type": "Point",
        "coordinates": [
          27.65556085414105,
          -22.14083657257345
        ]
      }
    },
    {
      "type": "Feature",
      "properties": {
        "norad_id": 40275,
        "name": "YAOGAN-22",
        "group": "resource",
        "lat": 24.330184261377813,
        "lon": 119.57846933487798,
        "alt_km": 1203.4422397620747,
        "timestamp": "2025-12-07T03:52:32.127157+00:00",
        "meta_object_name": "YAOGAN-22",
        "meta_object_id": "2014-063A",
        "meta_epoch": "2025-12-06T14:58:23.676096",
        "meta_mean_motion": 13.15522495,
        "meta_eccentricity": 0.00059068,
        "meta_inclination": 100.7418,
        "meta_ra_of_asc_node": 123.9571,
        "meta_arg_of_pericenter": 262.9773,
        "meta_mean_anomaly": 97.0666,
        "meta_ephemeris_type": 0,
        "meta_classification_type": "U",
        "meta_norad_cat_id": 40275,
        "meta_element_set_no": 999,
        "meta_rev_at_epoch": 53449,
        "meta_bstar": 4.402264e-05,
        "meta_mean_motion_dot": -3e-07,
        "meta_mean_motion_ddot": 0,
        "tle_line1": "1 40275U 14063A   25340.62388514 -.00000030  00000+0  44023-4 0  9993",
        "tle_line2": "2 40275 100.7418 123.9571 0005906 262.9773  97.0666 13.15522495534491"
      },
      "geometry": {
        "type": "Point",
        "coordinates": [
          119.57846933487798,
          24.330184261377813
        ]
      }
    },
    {
      "type": "Feature",
      "properties": {
        "norad_id": 40298,
        "name": "ASNARO",
        "group": "resource",
        "lat": 68.41764136932862,
        "lon": -103.66490953628188,
        "alt_km": 497.9975560133216,
        "timestamp": "2025-12-07T03:52:32.127168+00:00",
        "meta_object_name": "ASNARO",
        "meta_object_id": "2014-070A",
        "meta_epoch": "2025-12-06T11:35:06.559584",
        "meta_mean_motion": 15.19300222,
        "meta_eccentricity": 0.00052999,
        "meta_inclination": 97.3663,
        "meta_ra_of_asc_node": 56.5836,
        "meta_arg_of_pericenter": 139.6242,
        "meta_mean_anomaly": 220.5388,
        "meta_ephemeris_type": 0,
        "meta_classification_type": "U",
        "meta_norad_cat_id": 40298,
        "meta_element_set_no": 999,
        "meta_rev_at_epoch": 61474,
        "meta_bstar": 0.00087486749,
        "meta_mean_motion_dot": 0.00018437,
        "meta_mean_motion_ddot": 0,
        "tle_line1": "1 40298U 14070A   25340.48271481  .00018437  00000+0  87487-3 0  9993",
        "tle_line2": "2 40298  97.3663  56.5836 0005299 139.6242 220.5388 15.19300222614749"
      },
      "geometry": {
        "type": "Point",
        "coordinates": [
          -103.66490953628188,
          68.41764136932862
        ]
      }
    },
    {
      "type": "Feature",
      "properties": {
        "norad_id": 40310,
        "name": "YAOGAN-24",
        "group": "resource",
        "lat": -48.95553063837126,
        "lon": -77.21605573663997,
        "alt_km": 645.5908918792402,
        "timestamp": "2025-12-07T03:52:32.127178+00:00",
        "meta_object_name": "YAOGAN-24",
        "meta_object_id": "2014-072A",
        "meta_epoch": "2025-12-06T15:27:07.540128",
        "meta_mean_motion": 14.76157386,
        "meta_eccentricity": 0.00144411,
        "meta_inclination": 98.1225,
        "meta_ra_of_asc_node": 111.7049,
        "meta_arg_of_pericenter": 156.8874,
        "meta_mean_anomaly": 203.2988,
        "meta_ephemeris_type": 0,
        "meta_classification_type": "U",
        "meta_norad_cat_id": 40310,
        "meta_element_set_no": 999,
        "meta_rev_at_epoch": 59531,
        "meta_bstar": 0.00028473669,
        "meta_mean_motion_dot": 1.918e-05,
        "meta_mean_motion_ddot": 0,
        "tle_line1": "1 40310U 14072A   25340.64383727  .00001918  00000+0  28474-3 0  9992",
        "tle_line2": "2 40310  98.1225 111.7049 0014441 156.8874 203.2988 14.76157386595316"
      },
      "geometry": {
        "type": "Point",
        "coordinates": [
          -77.21605573663997,
          -48.95553063837126
        ]
      }
    },
    {
      "type": "Feature",
      "properties": {
        "norad_id": 40336,
        "name": "CBERS 4",
        "group": "resource",
        "lat": 63.711171121948105,
        "lon": 22.11185866721723,
        "alt_km": 766.4974755967296,
        "timestamp": "2025-12-07T03:52:32.127189+00:00",
        "meta_object_name": "CBERS 4",
        "meta_object_id": "2014-079A",
        "meta_epoch": "2025-12-06T14:11:28.548096",
        "meta_mean_motion": 14.35514292,
        "meta_eccentricity": 0.00015118,
        "meta_inclination": 98.3319,
        "meta_ra_of_asc_node": 38.8184,
        "meta_arg_of_pericenter": 121.2201,
        "meta_mean_anomaly": 238.9133,
        "meta_ephemeris_type": 0,
        "meta_classification_type": "U",
        "meta_norad_cat_id": 40336,
        "meta_element_set_no": 999,
        "meta_rev_at_epoch": 57632,
        "meta_bstar": 0.00012310707,
        "meta_mean_motion_dot": 3.12e-06,
        "meta_mean_motion_ddot": 0,
        "tle_line1": "1 40336U 14079A   25340.59130264  .00000312  00000+0  12311-3 0  9997",
        "tle_line2": "2 40336  98.3319  38.8184 0001511 121.2201 238.9133 14.35514292576328"
      },
      "geometry": {
        "type": "Point",
        "coordinates": [
          22.11185866721723,
          63.711171121948105
        ]
      }
    }
  ]
}